NORAD_CAT_ID,OBJECT_NAME,OBJECT_TYPE,EPOCH,MEAN_MOTION,ECCENTRICITY,INCLINATION,RA_OF_ASC_NODE,ARG_OF_PERICENTER,MEAN_ANOMALY,BSTAR,MEAN_MOTION_DOT,MEAN_MOTION_DDOT,TLE_LINE0,TLE_LINE1,TLE_LINE2,SEMIMAJOR_AXIS,PERIOD,APOGEE,PERIGEE,DECAYED
49426.0,STARLINK-3114,PAYLOAD,2022-06-22 10:00:29,15.08838426,0.0002466,53.2188,197.6677,36.7074,323.4087,-6.0235e-06,-3.84e-06,0.0,0 STARLINK-3114,1 49426U 21104U   22173.41700974 -.00000384  00000-0 -60235-5 0  9998,2 49426  53.2188 197.6677 0002466  36.7074 323.4087 15.08838426 34955,6917.885,95.438,541.456,538.044,0.0
49426.0,STARLINK-3114,PAYLOAD,2022-06-23 08:15:53,15.0883771,0.0002595,53.218,193.505,33.7948,326.321,0.00010322,1.355e-05,0.0,0 STARLINK-3114,1 49426U 21104U   22174.34436749  .00001355  00000-0  10322-3 0  9994,2 49426  53.2180 193.5050 0002595  33.7948 326.3210 15.08837710 34019,6917.887,95.438,541.548,537.957,0.0
49426.0,STARLINK-3114,PAYLOAD,2022-06-23 17:48:12,15.08840194,0.0002623,53.2178,191.7214,34.6953,325.4209,8.5072e-05,1.066e-05,0.0,0 STARLINK-3114,1 49426U 21104U   22174.74180673  .00001066  00000-0  85072-4 0  9994,2 49426  53.2178 191.7214 0002623  34.6953 325.4209 15.08840194 35150,6917.88,95.438,541.559,537.93,0.0
49426.0,STARLINK-3114,PAYLOAD,2022-06-24 08:06:41,15.08828504,0.0002608,53.218,189.0447,34.8934,325.2229,-5.1622e-05,-1.11e-05,0.0,0 STARLINK-3114,1 49426U 21104U   22175.33797997 -.00001110  00000-0 -51622-4 0  9999,2 49426  53.2180 189.0447 0002608  34.8934 325.2229 15.08828504 35246,6917.916,95.438,541.585,537.976,0.0
49426.0,STARLINK-3114,PAYLOAD,2022-06-24 17:39:00,15.08827403,0.0002683,53.218,187.2605,34.9124,325.2044,-4.7515e-05,-1.044e-05,0.0,0 STARLINK-3114,1 49426U 21104U   22175.73542308 -.00001044  00000-0 -47515-4 0  9999,2 49426  53.2180 187.2605 0002683  34.9124 325.2044 15.08827403 34226,6917.919,95.438,541.64,537.928,0.0
49426.0,STARLINK-3114,PAYLOAD,2022-06-25 09:32:52,15.08830846,0.0002653,53.218,184.287,35.6417,324.4752,-6.4044e-05,-1.307e-05,0.0,0 STARLINK-3114,1 49426U 21104U   22176.39782526 -.00001307  00000-0 -64044-4 0  9998,2 49426  53.2180 184.2870 0002653  35.6417 324.4752 15.08830846 35400,6917.908,95.438,541.609,537.938,0.0
49426.0,STARLINK-3114,PAYLOAD,2022-06-26 09:23:39,15.08826799,0.0002772,53.2181,179.8269,36.2344,323.8836,6.7449e-05,7.85e-06,0.0,0 STARLINK-3114,1 49426U 21104U   22177.39143022  .00000785  00000-0  67449-4 0  9990,2 49426  53.2181 179.8269 0002772  36.2344 323.8836 15.08826799 34475,6917.920999999999,95.438,541.703,537.868,0.0
49426.0,STARLINK-3114,PAYLOAD,2022-06-26 17:20:35,15.08828471,0.0002768,53.2181,178.3404,37.0481,323.0701,6.8369e-05,7.99e-06,0.0,0 STARLINK-3114,1 49426U 21104U   22177.72263158  .00000799  00000-0  68369-4 0  9997,2 49426  53.2181 178.3404 0002768  37.0481 323.0701 15.08828471 35604,6917.916,95.438,541.696,537.866,0.0
49426.0,STARLINK-3114,PAYLOAD,2022-06-27 06:03:40,15.08831378,0.0002799,53.2182,175.9616,38.2868,321.8323,7.333e-05,8.78e-06,0.0,0 STARLINK-3114,1 49426U 21104U   22178.25255333  .00000878  00000-0  73330-4 0  9994,2 49426  53.2182 175.9616 0002799  38.2868 321.8323 15.08831378 34604,6917.906999999997,95.438,541.7080000000002,537.835,0.0
49426.0,STARLINK-3114,PAYLOAD,2022-06-27 17:11:22,15.08833756,0.0002856999999999,53.2182,173.8803,39.2285,320.8913,7.404e-05,8.900000000000001e-06,0.0,0 STARLINK-3114,1 49426U 21104U   22178.71623392  .00000890  00000-0  74040-4 0  9992,2 49426  53.2182 173.8803 0002857  39.2285 320.8913 15.08833756 34671,6917.899,95.438,541.741,537.788,0.0
49426.0,STARLINK-3114,PAYLOAD,2022-06-28 04:19:04,15.08836552,0.0002862,53.2182,171.7987,40.126,319.9943,6.0548e-05,6.75e-06,0.0,0 STARLINK-3114,1 49426U 21104U   22179.17991385  .00000675  00000-0  60548-4 0  9992,2 49426  53.2182 171.7987 0002862  40.1260 319.9943 15.08836552 35828,6917.891,95.438,541.736,537.776,0.0
49426.0,STARLINK-3114,PAYLOAD,2022-06-28 09:05:13,15.08837583,0.0002892,53.2182,170.9066,40.7541,319.3667,6.660100000000001e-05,7.72e-06,0.0,0 STARLINK-3114,1 49426U 21104U   22179.37863340  .00000772  00000-0  66601-4 0  9997,2 49426  53.2182 170.9066 0002892  40.7541 319.3667 15.08837583 34773,6917.888000000001,95.438,541.753,537.752,0.0
49426.0,STARLINK-3114,PAYLOAD,2022-06-28 17:02:09,15.08839152,0.0002918,53.2182,169.42,41.2137,318.9075,6.7482e-05,7.86e-06,0.0,0 STARLINK-3114,1 49426U 21104U   22179.70983264  .00000786  00000-0  67482-4 0  9995,2 49426  53.2182 169.4200 0002918  41.2137 318.9075 15.08839152 34820,6917.8830000000025,95.438,541.7669999999998,537.729,0.0
49426.0,STARLINK-3114,PAYLOAD,2022-06-29 05:45:14,15.08842529,0.0002951,53.2181,167.0412,42.1385,317.9834,6.5441e-05,7.53e-06,0.0,0 STARLINK-3114,1 49426U 21104U   22180.23975033  .00000753  00000-0  65441-4 0  9997,2 49426  53.2181 167.0412 0002951  42.1385 317.9834 15.08842529 35982,6917.873000000001,95.437,541.779,537.696,0.0
49426.0,STARLINK-3114,PAYLOAD,2022-06-30 08:46:47,15.08847522,0.0003036,53.2183,161.9863,44.5002,315.6234,6.3017e-05,7.15e-06,0.0,0 STARLINK-3114,1 49426U 21104U   22181.36582294  .00000715  00000-0  63017-4 0  9990,2 49426  53.2183 161.9863 0003036  44.5002 315.6234 15.08847522 35071,6917.857,95.437,541.823,537.622,0.0
49426.0,STARLINK-3114,PAYLOAD,2022-07-01 05:26:48,15.088425699999998,0.0003083,53.2185,158.1205,46.529,313.5958,-8.2202e-06,-4.2e-06,0.0,0 STARLINK-3114,1 49426U 21104U   22182.22694509 -.00000420  00000-0 -82202-5 0  9992,2 49426  53.2185 158.1205 0003083  46.5290 313.5958 15.08842570 36286,6917.873000000001,95.437,541.87,537.605,0.0
49426.0,STARLINK-3114,PAYLOAD,2022-07-01 08:37:34,15.08836896,0.0003067,53.2185,157.5261,45.51,314.6143,-7.006699999999999e-05,-1.404e-05,0.0,0 STARLINK-3114,1 49426U 21104U   22182.35943028 -.00001404  00000-0 -70067-4 0  9997,2 49426  53.2185 157.5261 0003067  45.5100 314.6143 15.08836896 35227,6917.89,95.438,541.877,537.633,0.0
49426.0,STARLINK-3114,PAYLOAD,2022-07-01 21:20:39,15.08839447,0.0003089,53.2186,155.1472,46.3155,313.8093,-6.4015e-05,-1.307e-05,0.0,0 STARLINK-3114,1 49426U 21104U   22182.88934851 -.00001307  00000-0 -64015-4 0  9997,2 49426  53.2186 155.1472 0003089  46.3155 313.8093 15.08839447 35308,6917.882,95.438,541.884,537.61,0.0
49426.0,STARLINK-3114,PAYLOAD,2022-07-02 08:28:21,15.08841205,0.0003107,53.2185,153.0658,47.2488,312.8765,-4.1842e-05,-9.55e-06,0.0,0 STARLINK-3114,1 49426U 21104U   22183.35302641 -.00000955  00000-0 -41842-4 0  9997,2 49426  53.2185 153.0658 0003107  47.2488 312.8765 15.08841205 35377,6917.877,95.437,541.891,537.592,0.0
49426.0,STARLINK-3114,PAYLOAD,2022-07-02 14:49:53,15.08844101,0.0003111,53.2187,151.8765,47.6432,312.4824,-2.999e-05,-7.66e-06,0.0,0 STARLINK-3114,1 49426U 21104U   22183.61798374 -.00000766  00000-0 -29990-4 0  9998,2 49426  53.2187 151.8765 0003111  47.6432 312.4824 15.08844101 35417,6917.868,95.437,541.885,537.581,0.0
49426.0,STARLINK-3114,PAYLOAD,2022-07-03 08:19:07,15.08842857,0.0003135,53.2185,148.6055,48.9616,311.1647,0.00010992,1.461e-05,0.0,0 STARLINK-3114,1 49426U 21104U   22184.34661852  .00001461  00000-0  10992-3 0  9991,2 49426  53.2185 148.6055 0003135  48.9616 311.1647 15.08842857 36602,6917.871999999999,95.437,541.905,537.568,0.0
49426.0,STARLINK-3114,PAYLOAD,2022-07-03 21:02:12,15.08846213,0.0003147,53.2185,146.2266,50.0239,310.1029,0.00010799,1.431e-05,0.0,0 STARLINK-3114,1 49426U 21104U   22184.87653510  .00001431  00000-0  10799-3 0  9993,2 49426  53.2185 146.2266 0003147  50.0239 310.1029 15.08846213 35600,6917.861,95.437,541.903,537.549,0.0
49426.0,STARLINK-3114,PAYLOAD,2022-07-04 04:59:09,15.08837811,0.0003158,53.2187,144.7399,50.5993,309.5278,1.7873e-05,-4e-08,0.0,0 STARLINK-3114,1 49426U 21104U   22185.20774384 -.00000004  00000-0  17873-4 0  9991,2 49426  53.2187 144.7399 0003158  50.5993 309.5278 15.08837811 36733,6917.887,95.438,541.937,537.567,0.0
49426.0,STARLINK-3114,PAYLOAD,2022-07-04 06:34:32,15.08836929,0.0003162,53.2187,144.4426,50.5296,309.5976,9.6914e-06,-1.35e-06,0.0,0 STARLINK-3114,1 49426U 21104U   22185.27398474 -.00000135  00000-0  96914-5 0  9999,2 49426  53.2187 144.4426 0003162  50.5296 309.5976 15.08836929 35667,6917.89,95.438,541.942,537.567,0.0
49426.0,STARLINK-3114,PAYLOAD,2022-07-04 20:53:00,15.08842565,0.0003141,53.2188,141.7663,51.7752,308.3522,1.6189e-05,-3.1e-07,0.0,0 STARLINK-3114,1 49426U 21104U   22185.87014052 -.00000031  00000-0  16189-4 0  9992,2 49426  53.2188 141.7663 0003141  51.7752 308.3522 15.08842565 35755,6917.873000000001,95.437,541.91,537.565,0.0
49426.0,STARLINK-3114,PAYLOAD,2022-07-05 06:25:18,15.08847913,0.0003147,53.2186,139.9821,52.6611,307.4668,2.641e-05,1.32e-06,0.0,0 STARLINK-3114,1 49426U 21104U   22186.26757565  .00000132  00000-0  26410-4 0  9998,2 49426  53.2186 139.9821 0003147  52.6611 307.4668 15.08847913 36897,6917.856,95.437,541.898,537.544,0.0
49426.0,STARLINK-3114,PAYLOAD,2022-07-05 20:43:46,15.08849095,0.0003168999999999,53.2186,137.3067,53.3568,306.7715,1.4293e-05,-6.1e-07,0.0,0 STARLINK-3114,1 49426U 21104U   22186.86373168 -.00000061  00000-0  14293-4 0  9995,2 49426  53.2186 137.3067 0003169  53.3568 306.7715 15.08849095 35903,6917.853,95.437,541.91,537.525,0.0
49426.0,STARLINK-3114,PAYLOAD,2022-07-06 03:05:19,15.08836005,0.0003105,53.2193,136.1162,55.5272,304.6013,3.0731e-05,2e-06,0.0,0 STARLINK-3114,1 49426U 21104U   22187.12869903  .00000200  00000-0  30731-4 0  9991,2 49426  53.2193 136.1162 0003105  55.5272 304.6013 15.08836005 37020,6917.893,95.438,541.906,537.61,0.0
49426.0,STARLINK-3114,PAYLOAD,2022-07-06 06:16:05,15.08835245,0.0003118,53.2193,135.5216,55.6413,304.4874,2.400400000000001e-05,9.3e-07,0.0,0 STARLINK-3114,1 49426U 21104U   22187.26118008  .00000093  00000-0  24004-4 0  9995,2 49426  53.2193 135.5216 0003118  55.6413 304.4874 15.08835245 35964,6917.895,95.438,541.9169999999998,537.6030000000002,0.0
